OBJECT_NAME,OBJECT_ID,EPOCH,MEAN_MOTION,ECCENTRICITY,INCLINATION,RA_OF_ASC_NODE,ARG_OF_PERICENTER,MEAN_ANOMALY,EPHEMERIS_TYPE,CLASSIFICATION_TYPE,NORAD_CAT_ID,ELEMENT_SET_NO,REV_AT_EPOCH,BSTAR,MEAN_MOTION_DOT,MEAN_MOTION_DDOT
INTELSAT 23 (IS-23),2012-057A,2026-07-08T18:34:51.426912,1.00270303,.00003796,0.0125,26.7213,186.9573,298.7621,0,U,38867,999,5017,0,-.27E-5,0
FM-6,2013-058A,2026-07-08T14:40:48.636192,1.00271072,.00026079,0.0459,69.0588,113.2194,208.1550,0,U,39360,999,4628,0,0,0
INTELSAT 30 (IS-30),2014-062A,2026-07-08T21:48:10.861920,1.00270982,.00011521,0.0193,51.0103,339.3308,128.5083,0,U,40271,999,701,0,-.137E-5,0
DIRECTV 14,2014-078B,2026-07-08T14:30:49.439232,1.00270853,.00003913,0.0094,27.8117,314.0682,63.1432,0,U,40333,999,4225,0,-.111E-5,0
DIRECTV 15,2015-026A,2026-07-08T21:45:56.077056,1.00269471,.00001947,0.0172,69.0678,237.3723,204.0239,0,U,40663,999,4068,0,-.88E-6,0
SKY MEXICO-1,2015-026B,2026-07-08T20:10:10.000128,1.00270098,.00024461,0.0141,336.3187,154.0085,20.2030,0,U,40664,999,4067,0,-.22E-5,0
INTELSAT 34 (IS-34),2015-039A,2026-07-08T20:16:46.865568,1.00269953,.00002826,0.0091,349.1918,7.8662,178.4373,0,U,40874,999,3985,0,-.271E-5,0
INTELSAT 31 (IS-31),2016-035A,2026-07-08T23:47:01.885056,1.00270030,.00010382,0.0271,258.5469,24.0943,266.0020,0,U,41581,999,3690,0,-.136E-5,0
INTELSAT 36 (IS-36),2016-053A,2026-07-07T19:12:15.204672,1.00285795,.00009753,0.0091,10.2892,27.8198,244.1989,0,U,41747,999,3616,0,-.12E-6,0
INTELSAT 32E (IS-32E),2017-007B,2026-07-08T18:37:36.164064,1.00268707,.00006833,0.0157,6.8744,316.4422,199.6267,0,U,41945,999,3444,0,-.255E-5,0
INTELSAT 35E (IS-35E),2017-041A,2026-07-08T18:40:05.923776,1.00269609,.00015936,0.0242,30.5009,78.4214,63.3418,0,U,42818,999,3303,0,0,0
INTELSAT 37E (IS-37E),2017-059A,2026-07-08T18:44:50.470080,1.00271046,.00025555,0.0029,104.4376,9.9273,75.5800,0,U,42950,999,3228,0,-.126E-5,0
AZERSPACE 2 (IS-38),2018-074A,2026-07-08T20:20:38.704416,1.00271586,.0001199,0.0254,33.4804,88.7944,154.7909,0,U,43632,999,2866,0,0,0
HORIZONS-3E,2018-074B,2026-07-08T19:38:05.574912,1.00271917,.00009936,0.0376,211.0417,71.0752,108.1787,0,U,43633,999,2855,0,-.16E-6,0
AT&T T-16,2019-034A,2026-07-08T21:46:26.030208,1.00276266,.00008218,0.0150,69.4947,234.2043,208.9039,0,U,44333,999,2585,0,-.102E-5,0
INTELSAT 39 (IS-39),2019-049B,2026-07-08T21:48:38.814912,1.00270097,.00008679,0.0249,29.7598,289.1456,357.0558,0,U,44476,999,2534,0,0,0
GALAXY 30 (G-30),2020-056C,2026-07-08T18:14:15.900864,1.00270727,.00020658,0.0160,50.7515,58.6905,325.8349,0,U,46114,999,2150,0,.51E-6,0
GALAXY 33 (G-33),2022-128A,2026-07-08T16:29:19.811040,1.00270041,.00018669,0.0091,332.8911,141.4798,286.6050,0,U,54026,999,1395,0,.94E-6,0
GALAXY 34 (G-34),2022-128B,2026-07-08T16:34:03.223776,1.00272678,.00014397,0.0201,25.9532,97.0196,283.1943,0,U,54027,999,1412,0,0,0
GALAXY 31 (G-31),2022-153A,2026-07-08T14:50:10.358880,1.00271859,.00011104,0.0141,24.1780,92.6414,271.2962,0,U,54243,999,734,0,0,0
GALAXY 32 (G-32),2022-153B,2026-07-08T20:06:40.334976,1.00271791,.00015757,0.0080,13.2899,35.0160,89.1494,0,U,54244,999,1336,0,-.16E-5,0
GALAXY 35 (G-35),2022-170A,2026-07-08T20:05:55.406976,1.00271030,.00020014,0.0164,284.8558,186.8746,23.4340,0,U,54741,999,1311,0,-.148E-5,0
GALAXY 36 (G-36),2022-170B,2026-07-08T20:07:02.798976,1.00272061,.00025093,0.0246,124.3121,333.3763,41.8600,0,U,54742,999,1299,0,-.171E-5,0
GALAXY 37 (G-37),2023-112A,2026-07-08T21:38:56.747616,1.00272565,.00018071,0.0186,43.6875,72.7659,8.1390,0,U,57493,999,1076,0,.62E-6,0
